[{"OBJECT_NAME":"SUPERVIEW NEO-2 01","OBJECT_ID":"2022-082A","EPOCH":"2026-03-09T23:46:34.771008","MEAN_MOTION":15.24506379,"ECCENTRICITY":0.00017316,"INCLINATION":97.394,"RA_OF_ASC_NODE":80.2484,"ARG_OF_PERICENTER":88.8448,"MEAN_ANOMALY":271.2988,"EPHEMERIS_TYPE":0,"CLASSIFICATION_TYPE":"U","NORAD_CAT_ID":53128,"ELEMENT_SET_NO":999,"REV_AT_EPOCH":20309,"BSTAR":0.00036489892,"MEAN_MOTION_DOT":8.905e-5,"MEAN_MOTION_DDOT":0},{"OBJECT_NAME":"STARLINK-30240","OBJECT_ID":"2023-102A","EPOCH":"2026-03-09T22:00:01.999584","MEAN_MOTION":15.19463354,"ECCENTRICITY":9.931e-5,"INCLINATION":42.9994,"RA_OF_ASC_NODE":246.9127,"ARG_OF_PERICENTER":289.6396,"MEAN_ANOMALY":268.9521,"EPHEMERIS_TYPE":0,"CLASSIFICATION_TYPE":"U","NORAD_CAT_ID":57404,"ELEMENT_SET_NO":999,"REV_AT_EPOCH":567,"BSTAR":0.045670367,"MEAN_MOTION_DOT":0.01065995,"MEAN_MOTION_DDOT":0}]
